[
    {
        "Altitude(m)": 716660.7269281311,
        "Argument of Periapsis(deg)": 0.005695060593313534,
        "Eccentricity": 0.0,
        "Inclination(deg)": 45.0,
        "Latitude(deg)": -42.191735567863496,
        "Longitude(deg)": -121.00026816915975,
        "Mean Anomaly(deg)": 251.22110832374042,
        "RAAN(deg)": 94.9946240292709,
        "Satellite Name": "Constellation 1 433",
        "Satellite Number": 433,
        "Semi-Major Axis(m)": 7083131.272910544,
        "Time(s)": 95
    },
    {
        "Altitude(m)": 716668.3975693345,
        "Argument of Periapsis(deg)": 0.00575500859955894,
        "Eccentricity": 0.0,
        "Inclination(deg)": 45.0,
        "Latitude(deg)": -42.21027023114311,
        "Longitude(deg)": -120.92672643636713,
        "Mean Anomaly(deg)": 251.2818094639903,
        "RAAN(deg)": 94.99456744010533,
        "Satellite Name": "Constellation 1 433",
        "Satellite Number": 433,
        "Semi-Major Axis(m)": 7083131.272910544,
        "Time(s)": 96
    },
    {
        "Altitude(m)": 716676.0462794045,
        "Argument of Periapsis(deg)": 0.005814956605804345,
        "Eccentricity": 0.0,
        "Inclination(deg)": 45.0,
        "Latitude(deg)": -42.22875224148897,
        "Longitude(deg)": -120.8531392949568,
        "Mean Anomaly(deg)": 251.3425106042402,
        "RAAN(deg)": 94.99451085093978,
        "Satellite Name": "Constellation 1 433",
        "Satellite Number": 433,
        "Semi-Major Axis(m)": 7083131.272910544,
        "Time(s)": 97
    },
    {
        "Altitude(m)": 716683.6730302508,
        "Argument of Periapsis(deg)": 0.00587490461204975,
        "Eccentricity": 0.0,
        "Inclination(deg)": 45.0,
        "Latitude(deg)": -42.247181534962806,
        "Longitude(deg)": -120.77950698610736,
        "Mean Anomaly(deg)": 251.40321174449008,
        "RAAN(deg)": 94.9944542617742,
        "Satellite Name": "Constellation 1 433",
        "Satellite Number": 433,
        "Semi-Major Axis(m)": 7083131.272910544,
        "Time(s)": 98
    },
    {
        "Altitude(m)": 716691.2777938653,
        "Argument of Periapsis(deg)": 0.005934852618295156,
        "Eccentricity": 0.0,
        "Inclination(deg)": 45.0,
        "Latitude(deg)": -42.265558047712986,
        "Longitude(deg)": -120.70582958344974,
        "Mean Anomaly(deg)": 251.46391288473998,
        "RAAN(deg)": 94.99439767260863,
        "Satellite Name": "Constellation 1 433",
        "Satellite Number": 433,
        "Semi-Major Axis(m)": 7083131.272910544,
        "Time(s)": 99
    },
    {
        "Altitude(m)": 716698.860542312,
        "Argument of Periapsis(deg)": 0.005994800624540561,
        "Eccentricity": 0.0,
        "Inclination(deg)": 45.0,
        "Latitude(deg)": -42.28388171597549,
        "Longitude(deg)": -120.63210716116468,
        "Mean Anomaly(deg)": 251.52461402498992,
        "RAAN(deg)": 94.99434108344305,
        "Satellite Name": "Constellation 1 433",
        "Satellite Number": 433,
        "Semi-Major Axis(m)": 7083131.272910544,
        "Time(s)": 100
    },
    {
        "Altitude(m)": 716706.421247751,
        "Argument of Periapsis(deg)": 0.006054748630785968,
        "Eccentricity": 0.0,
        "Inclination(deg)": 45.0,
        "Latitude(deg)": -42.30215247607461,
        "Longitude(deg)": -120.55833979398352,
        "Mean Anomaly(deg)": 251.58531516523982,
        "RAAN(deg)": 94.99428449427748,
        "Satellite Name": "Constellation 1 433",
        "Satellite Number": 433,
        "Semi-Major Axis(m)": 7083131.272910544,
        "Time(s)": 101
    },
    {
        "Altitude(m)": 716713.9598824051,
        "Argument of Periapsis(deg)": 0.006114696637031373,
        "Eccentricity": 0.0,
        "Inclination(deg)": 45.0,
        "Latitude(deg)": -42.320370264423815,
        "Longitude(deg)": -120.48452755718831,
        "Mean Anomaly(deg)": 251.64601630548967,
        "RAAN(deg)": 94.9942279051119,
        "Satellite Name": "Constellation 1 433",
        "Satellite Number": 433,
        "Semi-Major Axis(m)": 7083131.272910544,
        "Time(s)": 102
    },
    {
        "Altitude(m)": 716721.4764185883,
        "Argument of Periapsis(deg)": 0.006174644643276778,
        "Eccentricity": 0.0,
        "Inclination(deg)": 45.0,
        "Latitude(deg)": -42.338535017526716,
        "Longitude(deg)": -120.41067052661244,
        "Mean Anomaly(deg)": 251.70671744573954,
        "RAAN(deg)": 94.99417131594635,
        "Satellite Name": "Constellation 1 433",
        "Satellite Number": 433,
        "Semi-Major Axis(m)": 7083131.272910544,
        "Time(s)": 103
    },
    {
        "Altitude(m)": 716728.9708286878,
        "Argument of Periapsis(deg)": 0.006234592649522184,
        "Eccentricity": 0.0,
        "Inclination(deg)": 45.0,
        "Latitude(deg)": -42.35664667197767,
        "Longitude(deg)": -120.33676894673812,
        "Mean Anomaly(deg)": 251.76741858598947,
        "RAAN(deg)": 94.99411472678078,
        "Satellite Name": "Constellation 1 433",
        "Satellite Number": 433,
        "Semi-Major Axis(m)": 7083131.272910544,
        "Time(s)": 104
    },
    {
        "Altitude(m)": 716736.4430851698,
        "Argument of Periapsis(deg)": 0.00629454065576759,
        "Eccentricity": 0.0,
        "Inclination(deg)": 45.0,
        "Latitude(deg)": -42.37470516446334,
        "Longitude(deg)": -120.26282255830826,
        "Mean Anomaly(deg)": 251.82811972623938,
        "RAAN(deg)": 94.9940581376152,
        "Satellite Name": "Constellation 1 433",
        "Satellite Number": 433,
        "Semi-Major Axis(m)": 7083131.272910544,
        "Time(s)": 105
    },
    {
        "Altitude(m)": 716743.8931605896,
        "Argument of Periapsis(deg)": 0.006354488662012995,
        "Eccentricity": 0.0,
        "Inclination(deg)": 45.0,
        "Latitude(deg)": -42.392710431762495,
        "Longitude(deg)": -120.1888316069097,
        "Mean Anomaly(deg)": 251.88882086648928,
        "RAAN(deg)": 94.99400154844963,
        "Satellite Name": "Constellation 1 433",
        "Satellite Number": 433,
        "Semi-Major Axis(m)": 7083131.272910544,
        "Time(s)": 106
    },
    {
        "Altitude(m)": 716751.3210275786,
        "Argument of Periapsis(deg)": 0.006414436668258401,
        "Eccentricity": 0.0,
        "Inclination(deg)": 45.0,
        "Latitude(deg)": -42.4106624107477,
        "Longitude(deg)": -120.11479617058491,
        "Mean Anomaly(deg)": 251.94952200673916,
        "RAAN(deg)": 94.99394495928408,
        "Satellite Name": "Constellation 1 433",
        "Satellite Number": 433,
        "Semi-Major Axis(m)": 7083131.272910544,
        "Time(s)": 107
    },
    {
        "Altitude(m)": 716758.7266588422,
        "Argument of Periapsis(deg)": 0.0064743846745038075,
        "Eccentricity": 0.0,
        "Inclination(deg)": 45.0,
        "Latitude(deg)": -42.42856103838582,
        "Longitude(deg)": -120.04071632792976,
        "Mean Anomaly(deg)": 252.0102231469891,
        "RAAN(deg)": 94.9938883701185,
        "Satellite Name": "Constellation 1 433",
        "Satellite Number": 433,
        "Semi-Major Axis(m)": 7083131.272910544,
        "Time(s)": 108
    },
    {
        "Altitude(m)": 716766.1100271699,
        "Argument of Periapsis(deg)": 0.0065343326807492125,
        "Eccentricity": 0.0,
        "Inclination(deg)": 45.0,
        "Latitude(deg)": -42.446406251739056,
        "Longitude(deg)": -119.96659215809353,
        "Mean Anomaly(deg)": 252.070924287239,
        "RAAN(deg)": 94.99383178095293,
        "Satellite Name": "Constellation 1 433",
        "Satellite Number": 433,
        "Semi-Major Axis(m)": 7083131.272910544,
        "Time(s)": 109
    },
    {
        "Altitude(m)": 716773.4711054364,
        "Argument of Periapsis(deg)": 0.0065942806869946176,
        "Eccentricity": 0.0,
        "Inclination(deg)": 45.0,
        "Latitude(deg)": -42.46419798796567,
        "Longitude(deg)": -119.89242374077969,
        "Mean Anomaly(deg)": 252.13162542748887,
        "RAAN(deg)": 94.99377519178736,
        "Satellite Name": "Constellation 1 433",
        "Satellite Number": 433,
        "Semi-Major Axis(m)": 7083131.272910544,
        "Time(s)": 110
    },
    {
        "Altitude(m)": 716780.809866591,
        "Argument of Periapsis(deg)": 0.006654228693240024,
        "Eccentricity": 0.0,
        "Inclination(deg)": 45.0,
        "Latitude(deg)": -42.48193618432079,
        "Longitude(deg)": -119.81821132434284,
        "Mean Anomaly(deg)": 252.1923265677388,
        "RAAN(deg)": 94.9937186026218,
        "Satellite Name": "Constellation 1 433",
        "Satellite Number": 433,
        "Semi-Major Axis(m)": 7083131.272910544,
        "Time(s)": 111
    },
    {
        "Altitude(m)": 716788.1262836717,
        "Argument of Periapsis(deg)": 0.006714176699485429,
        "Eccentricity": 0.0,
        "Inclination(deg)": 45.0,
        "Latitude(deg)": -42.49962077815799,
        "Longitude(deg)": -119.74395465340068,
        "Mean Anomaly(deg)": 252.2530277079887,
        "RAAN(deg)": 94.99366201345623,
        "Satellite Name": "Constellation 1 433",
        "Satellite Number": 433,
        "Semi-Major Axis(m)": 7083131.272910544,
        "Time(s)": 112
    },
    {
        "Altitude(m)": 716795.4203297854,
        "Argument of Periapsis(deg)": 0.006774124705730835,
        "Eccentricity": 0.0,
        "Inclination(deg)": 45.0,
        "Latitude(deg)": -42.517251706929024,
        "Longitude(deg)": -119.66965397741745,
        "Mean Anomaly(deg)": 252.3137288482386,
        "RAAN(deg)": 94.99360542429066,
        "Satellite Name": "Constellation 1 433",
        "Satellite Number": 433,
        "Semi-Major Axis(m)": 7083131.272910544,
        "Time(s)": 113
    }
]